{"fetched_at":"2026-07-12T17:32:31.090Z","source":"https://celestrak.org/NORAD/elements/gp.php?GROUP=stations&FORMAT=JSON","constellation":"crewed-vehicles","records":[{"OBJECT_NAME":"SOYUZ-MS 28","OBJECT_ID":"2025-275A","EPOCH":"2026-07-12T09:52:44.546016","CLASSIFICATION_TYPE":"U","MEAN_MOTION":15.48989885,"ECCENTRICITY":0.0006698,"INCLINATION":51.6301,"RA_OF_ASC_NODE":175.2558,"ARG_OF_PERICENTER":286.7033,"MEAN_ANOMALY":73.322,"EPHEMERIS_TYPE":0,"NORAD_CAT_ID":66664,"ELEMENT_SET_NO":999,"REV_AT_EPOCH":64625,"BSTAR":0.000094926,"MEAN_MOTION_DOT":0.00004782,"MEAN_MOTION_DDOT":0},{"OBJECT_NAME":"CREW DRAGON 12","OBJECT_ID":"2026-031A","EPOCH":"2026-07-12T09:52:44.546016","CLASSIFICATION_TYPE":"U","MEAN_MOTION":15.48989885,"ECCENTRICITY":0.0006698,"INCLINATION":51.6301,"RA_OF_ASC_NODE":175.2558,"ARG_OF_PERICENTER":286.7033,"MEAN_ANOMALY":73.322,"EPHEMERIS_TYPE":0,"NORAD_CAT_ID":67796,"ELEMENT_SET_NO":999,"REV_AT_EPOCH":62852,"BSTAR":0.000094926,"MEAN_MOTION_DOT":0.00004782,"MEAN_MOTION_DDOT":0},{"OBJECT_NAME":"SHENZHOU-23 (SZ-23)","OBJECT_ID":"2026-113A","EPOCH":"2026-07-12T06:23:37.679712","CLASSIFICATION_TYPE":"U","MEAN_MOTION":15.58035047,"ECCENTRICITY":0.00024506,"INCLINATION":41.4687,"RA_OF_ASC_NODE":169.5849,"ARG_OF_PERICENTER":291.036,"MEAN_ANOMALY":69.0216,"EPHEMERIS_TYPE":0,"NORAD_CAT_ID":69180,"ELEMENT_SET_NO":999,"REV_AT_EPOCH":29605,"BSTAR":0.000014737872,"MEAN_MOTION_DOT":0.00000809,"MEAN_MOTION_DDOT":0}]}
