SOYUZ-MS 28             
1 66664U 25275A   26193.41162669  .00004782  00000+0  94926-4 0  9999
2 66664  51.6301 175.2558 0006698 286.7033  73.3220 15.48989885646252
CREW DRAGON 12          
1 67796U 26031A   26193.41162669  .00004782  00000+0  94926-4 0  9997
2 67796  51.6301 175.2558 0006698 286.7033  73.3220 15.48989885628529
SHENZHOU-23 (SZ-23)     
1 69180U 26113A   26193.26640833  .00000809  00000+0  14738-4 0  9993
2 69180  41.4687 169.5849 0002450 291.0360  69.0216 15.58035047296054
